BEIDOU-3 M17 (C36)      
1 43706U 18093A   26069.52214490  .00000002  00000+0  00000+0 0  9991
2 43706  54.1708 185.6435 0007231 296.1360  71.6984  1.86228516 49703
BEIDOU-3 M18 (C37)      
1 43707U 18093B   26071.52058132 -.00000011  00000+0  00000+0 0  9995
2 43707  54.1720 185.5676 0006110 338.6816  21.2791  1.86226619 49739
BEIDOU-3 IGSO-1 (C38)   
1 44204U 19023A   26073.80570940 -.00000186  00000+0  00000+0 0  9994
2 44204  58.5685  38.6206 0025575 236.0412 306.7281  1.00268038  6269
BEIDOU-2 G8 (C01)       
1 44231U 19027A   26073.95365005 -.00000247  00000+0  00000+0 0  9996
2 44231   1.4178  74.2600 0011484 274.9672 311.1519  1.00273625 25139
BEIDOU-3 IGSO-2 (C39)   
1 44337U 19035A   26057.68879618 -.00000176  00000+0  00000+0 0  9995
2 44337  55.2338 159.8353 0038734 206.4752 153.7223  1.00247364 24561
BEIDOU-3 M24 (C46)      
1 44542U 19061A   26073.20132124 -.00000013  00000+0  00000+0 0  9992
2 44542  54.3984 185.9306 0008488  19.2225 340.7928  1.86229100 44027
BEIDOU-3 M23 (C45)      
1 44543U 19061B   26073.45188475 -.00000012  00000+0  00000+0 0  9999
2 44543  54.3970 185.8909 0004923  10.3958  69.7972  1.86227431 44039
BEIDOU-3 IGSO-3 (C40)   
1 44709U 19073A   26069.98346678 -.00000143  00000+0  00000+0 0  9995
2 44709  54.9673 281.9576 0040728 188.7089 171.2538  1.00267242 23477
BEIDOU-3 M22 (C44)      
1 44793U 19078A   26073.04051358 -.00000019  00000+0  00000+0 0  9995
2 44793  54.0216 303.1765 0007465  38.1970 321.9120  1.86232320 42878
BEIDOU-3 M21 (C43)      
1 44794U 19078B   26071.03242650 -.00000032  00000+0  00000+0 0  9995
2 44794  53.9966 303.2101 0005425  33.1471 326.9381  1.86227925 42845
BEIDOU-3 M19 (C41)      
1 44864U 19090A   26072.08090314  .00000011  00000+0  00000+0 0  9997
2 44864  56.4754  65.9655 0020546 291.6910 247.8851  1.86231740 42441
BEIDOU-3 M20 (C42)      
1 44865U 19090B   26073.30245928  .00000019  00000+0  00000+0 0  9995
2 44865  56.4780  65.9600 0017869 303.3279  64.8469  1.86231612 42455
BEIDOU-3 G2 (C60)       
1 45344U 20017A   26073.94090999 -.00000139  00000+0  00000+0 0  9999
2 45344   2.6743  45.7536 0002733 323.3562 222.2179  1.00272381 22310
BEIDOU-3 G3 (C61)       
1 45807U 20040A   26073.94689001 -.00000353  00000+0  00000+0 0  9995
2 45807   2.2142  67.1491 0004839 325.3883 231.4219  1.00270508 21122
BEIDOU-3 G4 (C62)       
1 56564U 23066A   26072.17398353 -.00000111  00000+0  00000+0 0  9991
2 56564   0.6336 312.1088 0002647 153.4351 287.9442  1.00272296 10433
BEIDOU-3 M28 (C50)      
1 58654U 23207A   26072.72076170  .00000012  00000+0  00000+0 0  9990
2 58654  55.6694  65.5222 0004977 305.9000  54.0758  1.86229773 15067
BEIDOU-3 M26 (C48)      
1 58655U 23207B   26073.59215816  .00000016  00000+0  00000+0 0  9993
2 58655  55.6721  65.4789 0005713 291.4407  68.5207  1.86229709 15063
